CTC2_L_00469008-07
1 67420U 24189AU  26070.40848380  .00000000  00000+0  00000-0 0  9992
2 67420 100.3000  84.0000 0000000   0.0000 312.0000 13.03091871    17
CTC2_L_00469008-08
1 67421U 26245LD  26070.40848380  .00000000  00000+0  00000-0 0  9998
2 67421 100.3000  84.0000 0000000   0.0000 357.0000 13.03091871    17
CTC2_L_00469009-01
1 67422U 26767RL  26070.40848380  .00000000  00000+0  00000-0 0  9998
2 67422 100.3000  96.0000 0000000   0.0000  48.0000 13.03091871    18
CTC2_L_00469009-02
1 67423U 22833XT  26070.40848380  .00000000  00000+0  00000-0 0  9999
2 67423 100.3000  96.0000 0000000   0.0000  93.0000 13.03091871    19
CTC2_L_00469009-03
1 67424U 22074AC  26070.40848380  .00000000  00000+0  00000-0 0  9997
2 67424 100.3000  96.0000 0000000   0.0000 138.0000 13.03091871    10
CTC2_L_00469009-04
1 67425U 24182VA  26070.40848380  .00000000  00000+0  00000-0 0  9990
2 67425 100.3000  96.0000 0000000   0.0000 183.0000 13.03091871    11
CTC2_L_00469009-05
1 67426U 22823ED  26070.40848380  .00000000  00000+0  00000-0 0  9991
2 67426 100.3000  96.0000 0000000   0.0000 228.0000 13.03091871    12
CTC2_L_00469009-06
1 67427U 23477TE  26070.40848380  .00000000  00000+0  00000-0 0  9998
2 67427 100.3000  96.0000 0000000   0.0000 273.0000 13.03091871    13
CTC2_L_00469009-07
1 67428U 23532U   26070.40848380  .00000000  00000+0  00000-0 0  9991
2 67428 100.3000  96.0000 0000000   0.0000 318.0000 13.03091871    14
CTC2_L_00469009-08
1 67429U 24030RJ  26070.40848380  .00000000  00000+0  00000-0 0  9996
2 67429 100.3000  96.0000 0000000   0.0000   3.0000 13.03091871    16
CTC2_L_00469010-01
1 67430U 22560RN  26070.40848380  .00000000  00000+0  00000-0 0  9994
2 67430 100.3000 108.0000 0000000   0.0000  54.0000 13.03091871    18
CTC2_L_00469010-02
1 67431U 25393SD  26070.40848380  .00000000  00000+0  00000-0 0  9992
2 67431 100.3000 108.0000 0000000   0.0000  99.0000 13.03091871    18
CTC2_L_00469010-03
1 67432U 26822LG  26070.40848380  .00000000  00000+0  00000-0 0  9991
2 67432 100.3000 108.0000 0000000   0.0000 144.0000 13.03091871    10
CTC2_L_00469010-04
1 67433U 24087GL  26070.40848380  .00000000  00000+0  00000-0 0  9993
2 67433 100.3000 108.0000 0000000   0.0000 189.0000 13.03091871    10
CTC2_L_00469010-05
1 67434U 25098ZD  26070.40848380  .00000000  00000+0  00000-0 0  9997
2 67434 100.3000 108.0000 0000000   0.0000 234.0000 13.03091871    12
CTC2_L_00469010-06
1 67435U 26172SK  26070.40848380  .00000000  00000+0  00000-0 0  9992
2 67435 100.3000 108.0000 0000000   0.0000 279.0000 13.03091871    12
CTC2_L_00469010-07
1 67436U 26517GW  26070.40848380  .00000000  00000+0  00000-0 0  9996
2 67436 100.3000 108.0000 0000000   0.0000 324.0000 13.03091871    14
CTC2_L_00469010-08
1 67437U 22291VR  26070.40848380  .00000000  00000+0  00000-0 0  9992
2 67437 100.3000 108.0000 0000000   0.0000   9.0000 13.03091871    15
CTC2_L_00469011-01
1 67438U 23001KN  26070.40848380  .00000000  00000+0  00000-0 0  9993
2 67438 100.3000 120.0000 0000000   0.0000  60.0000 13.03091871    17
CTC2_L_00469011-02
1 67439U 23465XP  26070.40848380  .00000000  00000+0  00000-0 0  9998
2 67439 100.3000 120.0000 0000000   0.0000 105.0000 13.03091871    18
CTC2_L_00469011-03
1 67440U 22915VM  26070.40848380  .00000000  00000+0  00000-0 0  9999
2 67440 100.3000 120.0000 0000000   0.0000 150.0000 13.03091871    10
CTC2_L_00469011-04
1 67441U 24624SV  26070.40848380  .00000000  00000+0  00000-0 0  9999
2 67441 100.3000 120.0000 0000000   0.0000 195.0000 13.03091871    10
CTC2_L_00469011-05
1 67442U 26148BX  26070.40848380  .00000000  00000+0  00000-0 0  9993
2 67442 100.3000 120.0000 0000000   0.0000 240.0000 13.03091871    12
CTC2_L_00469011-06
1 67443U 26481BF  26070.40848380  .00000000  00000+0  00000-0 0  9994
2 67443 100.3000 120.0000 0000000   0.0000 285.0000 13.03091871    12
CTC2_L_00469011-07
1 67444U 22217LS  26070.40848380  .00000000  00000+0  00000-0 0  9998
2 67444 100.3000 120.0000 0000000   0.0000 330.0000 13.03091871    14
CTC2_L_00469011-08
1 67445U 23625EG  26070.40848380  .00000000  00000+0  00000-0 0  9993
2 67445 100.3000 120.0000 0000000   0.0000  15.0000 13.03091871    15
CTC2_L_00469012-01
1 67446U 25376UY  26070.40848380  .00000000  00000+0  00000-0 0  9999
2 67446 100.3000 132.0000 0000000   0.0000  66.0000 13.03091871    15
CTC2_L_00469012-02
1 67447U 23044ZQ  26070.40848380  .00000000  00000+0  00000-0 0  9990
2 67447 100.3000 132.0000 0000000   0.0000 111.0000 13.03091871    17
CTC2_L_00469012-03
1 67448U 24759BG  26070.40848380  .00000000  00000+0  00000-0 0  9995
2 67448 100.3000 132.0000 0000000   0.0000 156.0000 13.03091871    17
CTC2_L_00469012-04
1 67449U 26429NH  26070.40848380  .00000000  00000+0  00000-0 0  9992
2 67449 100.3000 132.0000 0000000   0.0000 201.0000 13.03091871    19
CTC2_L_00469012-05
1 67450U 23099SY  26070.40848380  .00000000  00000+0  00000-0 0  9994
2 67450 100.3000 132.0000 0000000   0.0000 246.0000 13.03091871    10
CTC2_L_00469012-06
1 67451U 23605CI  26070.40848380  .00000000  00000+0  00000-0 0  9998
2 67451 100.3000 132.0000 0000000   0.0000 291.0000 13.03091871    11
CTC2_L_00469012-07
1 67452U 26976AI  26070.40848380  .00000000  00000+0  00000-0 0  9993
2 67452 100.3000 132.0000 0000000   0.0000 336.0000 13.03091871    12
CTC2_L_00469012-08
1 67453U 23994YX  26070.40848380  .00000000  00000+0  00000-0 0  9991
2 67453 100.3000 132.0000 0000000   0.0000  21.0000 13.03091871    14
CTC2_L_00469013-01
1 67454U 24455OM  26070.40848380  .00000000  00000+0  00000-0 0  9995
2 67454 100.3000 144.0000 0000000   0.0000  72.0000 13.03091871    14
CTC2_L_00469013-02
1 67455U 23051PX  26070.40848380  .00000000  00000+0  00000-0 0  9997
2 67455 100.3000 144.0000 0000000   0.0000 117.0000 13.03091871    15
CTC2_L_00469013-03
1 67456U 23065QJ  26070.40848380  .00000000  00000+0  00000-0 0  9993
2 67456 100.3000 144.0000 0000000   0.0000 162.0000 13.03091871    16
CTC2_L_00469013-04
1 67457U 25090KJ  26070.40848380  .00000000  00000+0  00000-0 0  9994
2 67457 100.3000 144.0000 0000000   0.0000 207.0000 13.03091871    17
CTC2_L_00469013-05
1 67458U 23694KQ  26070.40848380  .00000000  00000+0  00000-0 0  9993
2 67458 100.3000 144.0000 0000000   0.0000 252.0000 13.03091871    18
CTC2_L_00469013-06
1 67459U 22637CU  26070.40848380  .00000000  00000+0  00000-0 0  9990
2 67459 100.3000 144.0000 0000000   0.0000 297.0000 13.03091871    18
CTC2_L_00469013-07
1 67460U 23022YB  26070.40848380  .00000000  00000+0  00000-0 0  9991
2 67460 100.3000 144.0000 0000000   0.0000 342.0000 13.03091871    11
CTC2_L_00469013-08
1 67461U 22447EC  26070.40848380  .00000000  00000+0  00000-0 0  9992
2 67461 100.3000 144.0000 0000000   0.0000  27.0000 13.03091871    12
CTC2_L_00469014-01
1 67462U 26161DA  26070.40848380  .00000000  00000+0  00000-0 0  9990
2 67462 100.3000 156.0000 0000000   0.0000  78.0000 13.03091871    12
CTC2_L_00469014-02
1 67463U 24636VA  26070.40848380  .00000000  00000+0  00000-0 0  9996
2 67463 100.3000 156.0000 0000000   0.0000 123.0000 13.03091871    14
CTC2_L_00469014-03
1 67464U 24813QG  26070.40848380  .00000000  00000+0  00000-0 0  9994
2 67464 100.3000 156.0000 0000000   0.0000 168.0000 13.03091871    14
CTC2_L_00469014-04
1 67465U 23302IQ  26070.40848380  .00000000  00000+0  00000-0 0  9997
2 67465 100.3000 156.0000 0000000   0.0000 213.0000 13.03091871    16
CTC2_L_00469014-05
1 67466U 22134UM  26070.40848380  .00000000  00000+0  00000-0 0  9990
2 67466 100.3000 156.0000 0000000   0.0000 258.0000 13.03091871    16
CTC2_L_00469014-06
1 67467U 25070DY  26070.40848380  .00000000  00000+0  00000-0 0  9993
2 67467 100.3000 156.0000 0000000   0.0000 303.0000 13.03091871    18
CTC2_L_00469014-07
1 67468U 25360GC  26070.40848380  .00000000  00000+0  00000-0 0  9996
2 67468 100.3000 156.0000 0000000   0.0000 348.0000 13.03091871    18
CTC2_L_00469014-08
1 67469U 23649VH  26070.40848380  .00000000  00000+0  00000-0 0  9995
2 67469 100.3000 156.0000 0000000   0.0000  33.0000 13.03091871    10
CTC2_L_00469015-01
1 67470U 26996VV  26070.40848380  .00000000  00000+0  00000-0 0  9995
2 67470 100.3000 168.0000 0000000   0.0000  84.0000 13.03091871    11
CTC2_L_00469015-02
1 67471U 25725NP  26070.40848380  .00000000  00000+0  00000-0 0  9995
2 67471 100.3000 168.0000 0000000   0.0000 129.0000 13.03091871    12
CTC2_L_00469015-03
1 67472U 22855BE  26070.40848380  .00000000  00000+0  00000-0 0  9997
2 67472 100.3000 168.0000 0000000   0.0000 174.0000 13.03091871    13
CTC2_L_00469015-04
1 67473U 24906JY  26070.40848380  .00000000  00000+0  00000-0 0  9997
2 67473 100.3000 168.0000 0000000   0.0000 219.0000 13.03091871    14
CTC2_L_00469015-05
1 67474U 26606WR  26070.40848380  .00000000  00000+0  00000-0 0  9997
2 67474 100.3000 168.0000 0000000   0.0000 264.0000 13.03091871    15
CTC2_L_00469015-06
1 67475U 25973AO  26070.40848380  .00000000  00000+0  00000-0 0  9994
2 67475 100.3000 168.0000 0000000   0.0000 309.0000 13.03091871    16
CTC2_L_00469015-07
1 67476U 22600VY  26070.40848380  .00000000  00000+0  00000-0 0  9999
2 67476 100.3000 168.0000 0000000   0.0000 354.0000 13.03091871    17
CTC2_L_00469015-08
1 67477U 24161BA  26070.40848380  .00000000  00000+0  00000-0 0  9994
2 67477 100.3000 168.0000 0000000   0.0000  39.0000 13.03091871    18
CTC2_L_00469016-01
1 67478U 24834OP  26070.40848380  .00000000  00000+0  00000-0 0  9992
2 67478 100.3000 180.0000 0000000   0.0000  90.0000 13.03091871    10
CTC2_L_00469016-02
1 67479U 24081AU  26070.40848380  .00000000  00000+0  00000-0 0  9997
2 67479 100.3000 180.0000 0000000   0.0000 135.0000 13.03091871    11
CTC2_L_00469016-03
1 67480U 24280GA  26070.40848380  .00000000  00000+0  00000-0 0  9990
2 67480 100.3000 180.0000 0000000   0.0000 180.0000 13.03091871    13
CTC2_L_00469016-04
1 67481U 25924AS  26070.40848380  .00000000  00000+0  00000-0 0  9997
2 67481 100.3000 180.0000 0000000   0.0000 225.0000 13.03091871    14
